NORAD_CAT_ID,OBJECT_NAME,OBJECT_TYPE,EPOCH,MEAN_MOTION,ECCENTRICITY,INCLINATION,RA_OF_ASC_NODE,ARG_OF_PERICENTER,MEAN_ANOMALY,BSTAR,MEAN_MOTION_DOT,MEAN_MOTION_DDOT,TLE_LINE0,TLE_LINE1,TLE_LINE2,SEMIMAJOR_AXIS,PERIOD,APOGEE,PERIGEE,DECAYED
52493.0,STARLINK-3883,PAYLOAD,2023-06-05 15:46:59,15.08852903,9.76e-05,53.216,254.3503,94.8541,265.2563,0.00038325,5.819e-05,0.0,0 STARLINK-3883,1 52493U 22049AU  23156.65763234  .00005819  00000-0  38325-3 0  9990,2 52493  53.2160 254.3503 0000976  94.8541 265.2563 15.08852903 60373,6917.841,95.437,540.381,539.031,0.0
52493.0,STARLINK-3883,PAYLOAD,2023-06-06 09:16:14,15.08838804,0.0001031,53.2146,251.079,94.1836,265.9274,6.3924e-05,7.3e-06,0.0,0 STARLINK-3883,1 52493U 22049AU  23157.38627612  .00000730  00000-0  63924-4 0  9991,2 52493  53.2146 251.0790 0001031  94.1836 265.9274 15.08838804 60484,6917.884,95.438,540.462,539.036,0.0
52493.0,STARLINK-3883,PAYLOAD,2023-06-06 12:27:00,15.08841098,0.0001106,53.2153,250.486,86.9627,273.1491,3.8359e-05,3.23e-06,0.0,0 STARLINK-3883,1 52493U 22049AU  23157.51875649  .00000323  00000-0  38359-4 0  9993,2 52493  53.2153 250.4860 0001106  86.9627 273.1491 15.08841098 60349,6917.877,95.437,540.507,538.977,0.0
52493.0,STARLINK-3883,PAYLOAD,2023-06-06 15:37:46,15.08847035,0.0001115,53.2161,249.8915,84.0536,276.0583,8.7347e-05,1.103e-05,0.0,0 STARLINK-3883,1 52493U 22049AU  23157.65123401  .00001103  00000-0  87347-4 0  9998,2 52493  53.2161 249.8915 0001115  84.0536 276.0583 15.08847035 60362,6917.859,95.437,540.495,538.953,0.0
52493.0,STARLINK-3883,PAYLOAD,2023-06-07 05:56:15,15.08836155,8.75e-05,53.2158,247.2149,90.2606,269.8486,0.00011185,1.493e-05,0.0,0 STARLINK-3883,1 52493U 22049AU  23158.24739959  .00001493  00000-0  11185-3 0  9993,2 52493  53.2158 247.2149 0000875  90.2606 269.8486 15.08836155 60451,6917.892,95.438,540.362,539.152,0.0
52493.0,STARLINK-3883,PAYLOAD,2023-06-07 17:03:57,15.08844138,0.0001143,53.215,245.1346,76.8723,283.2397,0.00013287,1.828e-05,0.0,0 STARLINK-3883,1 52493U 22049AU  23158.71107649  .00001828  00000-0  13287-3 0  9997,2 52493  53.2150 245.1346 0001143  76.8723 283.2397 15.08844138 60684,6917.868,95.437,540.523,538.942,0.0
52493.0,STARLINK-3883,PAYLOAD,2023-06-07 23:25:30,15.08837729,0.0001433,53.2141,243.9484,63.6846,296.4293,1.354e-05,-7.2e-07,0.0,0 STARLINK-3883,1 52493U 22049AU  23158.97604172 -.00000072  00000-0  13540-4 0  9992,2 52493  53.2141 243.9484 0001433  63.6846 296.4293 15.08837729 60729,6917.887,95.438,540.744,538.761,0.0
52493.0,STARLINK-3883,PAYLOAD,2023-06-08 12:08:34,15.0883938,0.0001241,53.2159,241.5652,71.8885,288.2242,5.1184e-05,5.27e-06,0.0,0 STARLINK-3883,1 52493U 22049AU  23159.50595965  .00000527  00000-0  51184-4 0  9991,2 52493  53.2159 241.5652 0001241  71.8885 288.2242 15.08839380 60649,6917.882,95.438,540.606,538.889,0.0
52493.0,STARLINK-3883,PAYLOAD,2023-06-08 15:19:20,15.08843582,0.0001061,53.2158,240.9685,86.6661,273.4452,0.00010834,1.437e-05,0.0,0 STARLINK-3883,1 52493U 22049AU  23159.63843715  .00001437  00000-0  10834-3 0  9991,2 52493  53.2158 240.9685 0001061  86.6661 273.4452 15.08843582 60663,6917.869,95.437,540.468,539.0,0.0
52493.0,STARLINK-3883,PAYLOAD,2023-06-09 11:59:21,15.08846527,9.46e-05,53.2147,237.102,87.1437,272.9663,0.00014619,2.04e-05,0.0,0 STARLINK-3883,1 52493U 22049AU  23160.49955572  .00002040  00000-0  14619-3 0  9998,2 52493  53.2147 237.1020 0000946  87.1437 272.9663 15.08846527 60794,6917.86,95.437,540.38,539.071,0.0
52493.0,STARLINK-3883,PAYLOAD,2023-06-09 21:31:40,15.08839106,0.0001016,53.2147,235.3175,81.1645,278.9462,0.00015734,2.217e-05,0.0,0 STARLINK-3883,1 52493U 22049AU  23160.89699932  .00002217  00000-0  15734-3 0  9992,2 52493  53.2147 235.3175 0001016  81.1645 278.9462 15.08839106 60854,6917.883,95.438,540.451,539.045,0.0
52493.0,STARLINK-3883,PAYLOAD,2023-06-10 11:50:09,15.08836851,0.0001108,53.2151,232.6419,78.7694,281.3423,-3.5379e-06,-3.44e-06,0.0,0 STARLINK-3883,1 52493U 22049AU  23161.49316100 -.00000344  00000-0 -35379-5 0  9992,2 52493  53.2151 232.6419 0001108  78.7694 281.3423 15.08836851 60947,6917.89,95.438,540.522,538.989,0.0
52493.0,STARLINK-3883,PAYLOAD,2023-06-10 21:22:28,15.08835551,5.44e-05,53.2172,230.8595,109.6277,250.4774,2.5861e-06,-2.46e-06,0.0,0 STARLINK-3883,1 52493U 22049AU  23161.89060333 -.00000246  00000-0  25861-5 0  9995,2 52493  53.2172 230.8595 0000544 109.6277 250.4774 15.08835551 61009,6917.894,95.438,540.135,539.383,0.0
52493.0,STARLINK-3883,PAYLOAD,2023-06-11 03:44:01,15.08831926,7.05e-05,53.2166,229.6714,105.1416,254.9654,3.0871e-05,2.04e-06,0.0,0 STARLINK-3883,1 52493U 22049AU  23162.15556721  .00000204  00000-0  30871-4 0  9995,2 52493  53.2166 229.6714 0000705 105.1416 254.9654 15.08831926 61206,6917.905,95.438,540.258,539.282,0.0
52493.0,STARLINK-3883,PAYLOAD,2023-06-11 11:40:56,15.08838841,6.16e-05,53.2162,228.1856,108.4081,251.6978,1.1022e-05,-1.12e-06,0.0,0 STARLINK-3883,1 52493U 22049AU  23162.48676414 -.00000112  00000-0  11022-4 0  9999,2 52493  53.2162 228.1856 0000616 108.4081 251.6978 15.08838841 61091,6917.884,95.438,540.175,539.323,0.0
52493.0,STARLINK-3883,PAYLOAD,2023-06-11 14:51:42,15.08843611,9.61e-05,53.2153,227.5883,81.5169,278.5932,4.7109e-05,4.62e-06,0.0,0 STARLINK-3883,1 52493U 22049AU  23162.61924036  .00000462  00000-0  47109-4 0  9992,2 52493  53.2153 227.5883 0000961  81.5169 278.5932 15.08843611 61274,6917.869,95.437,540.399,539.07,0.0
52493.0,STARLINK-3883,PAYLOAD,2023-06-11 21:13:15,15.08840602,9.84e-05,53.2166,226.3992,87.4306,272.6799,2.2875e-05,7.6e-07,0.0,0 STARLINK-3883,1 52493U 22049AU  23162.88420323  .00000076  00000-0  22875-4 0  9995,2 52493  53.2166 226.3992 0000984  87.4306 272.6799 15.08840602 61159,6917.879,95.438,540.424,539.063,0.0
52493.0,STARLINK-3883,PAYLOAD,2023-06-12 21:04:02,15.0884216,9.39e-05,53.2159,221.9384,87.2027,272.9073,9.3275e-05,1.197e-05,0.0,0 STARLINK-3883,1 52493U 22049AU  23163.87780251  .00001197  00000-0  93275-4 0  9991,2 52493  53.2159 221.9384 0000939  87.2027 272.9073 15.08842160 61301,6917.874,95.437,540.388,539.089,0.0
52493.0,STARLINK-3883,PAYLOAD,2023-06-13 08:11:44,15.0883519,0.0001019,53.2164,219.8573,91.8117,268.2992,6.4267e-05,7.35e-06,0.0,0 STARLINK-3883,1 52493U 22049AU  23164.34148860  .00000735  00000-0  64267-4 0  9994,2 52493  53.2164 219.8573 0001019  91.8117 268.2992 15.08835190 61532,6917.895,95.438,540.465,539.055,0.0
52493.0,STARLINK-3883,PAYLOAD,2023-06-13 20:54:49,15.08841159,9.52e-05,53.216,217.4772,85.7263,274.3838,2.5164e-05,1.13e-06,0.0,0 STARLINK-3883,1 52493U 22049AU  23164.87140590  .00000113  00000-0  25164-4 0  9997,2 52493  53.2160 217.4772 0000952  85.7263 274.3838 15.08841159 61452,6917.877,95.437,540.4,539.083,0.0
52493.0,STARLINK-3883,PAYLOAD,2023-06-14 03:16:22,15.0883777,9.78e-05,53.2159,216.2881,89.3193,270.7911,7.2233e-05,8.62e-06,0.0,0 STARLINK-3883,1 52493U 22049AU  23165.13636787  .00000862  00000-0  72233-4 0  9995,2 52493  53.2159 216.2881 0000978  89.3193 270.7911 15.08837770 61498,6917.887,95.438,540.429,539.076,0.0
52493.0,STARLINK-3883,PAYLOAD,2023-06-15 09:28:41,15.08840299,0.000102,53.2159,210.6391,81.2561,278.8546,8.7187e-05,1.1e-05,0.0,0 STARLINK-3883,1 52493U 22049AU  23166.39492751  .00001100  00000-0  87187-4 0  9995,2 52493  53.2159 210.6391 0001020  81.2561 278.8546 15.08840299 61843,6917.879,95.438,540.45,539.039,0.0
52493.0,STARLINK-3883,PAYLOAD,2023-06-15 12:39:27,15.0884212,9.98e-05,53.2159,210.0439,82.9308,277.1797,9.9493e-05,1.296e-05,0.0,0 STARLINK-3883,1 52493U 22049AU  23166.52740609  .00001296  00000-0  99493-4 0  9997,2 52493  53.2159 210.0439 0000998  82.9308 277.1797 15.08842120 61700,6917.874,95.437,540.429,539.049,0.0
52493.0,STARLINK-3883,PAYLOAD,2023-06-16 12:30:14,15.08849624,9.85e-05,53.2157,205.5826,85.0422,275.0683,0.00015963,2.254e-05,0.0,0 STARLINK-3883,1 52493U 22049AU  23167.52099929  .00002254  00000-0  15963-3 0  9994,2 52493  53.2157 205.5826 0000985  85.0422 275.0683 15.08849624 61857,6917.851,95.437,540.397,539.035,0.0
52493.0,STARLINK-3883,PAYLOAD,2023-06-17 02:48:43,15.08836236,9.7e-05,53.2161,202.9078,90.084,270.0263,1.3107e-05,-7.9e-07,0.0,0 STARLINK-3883,1 52493U 22049AU  23168.11716991 -.00000079  00000-0  13107-4 0  9998,2 52493  53.2161 202.9078 0000970  90.0840 270.0263 15.08836236 62109,6917.892,95.438,540.428,539.086,0.0
52493.0,STARLINK-3883,PAYLOAD,2023-06-17 09:10:16,15.08837205,0.0001001,53.2159,201.7178,90.1071,270.0036,1.7372e-05,-1.1e-07,0.0,0 STARLINK-3883,1 52493U 22049AU  23168.38212970 -.00000011  00000-0  17372-4 0  9999,2 52493  53.2159 201.7178 0001001  90.1071 270.0036 15.08837205 61987,6917.889,95.438,540.446,539.061,0.0
52493.0,STARLINK-3883,PAYLOAD,2023-06-17 18:42:35,15.08835542,9.9e-05,53.2158,199.9337,88.2583,271.8522,-9.0091e-07,-3.02e-06,0.0,0 STARLINK-3883,1 52493U 22049AU  23168.77957203 -.00000302  00000-0 -90091-6 0  9992,2 52493  53.2158 199.9337 0000990  88.2583 271.8522 15.08835542 62042,6917.894,95.438,540.444,539.074,0.0
52493.0,STARLINK-3883,PAYLOAD,2023-06-18 02:39:30,15.08834792,0.0001027,53.216,198.4474,93.1978,266.9132,-1.2628e-05,-4.89e-06,0.0,0 STARLINK-3883,1 52493U 22049AU  23169.11077364 -.00000489  00000-0 -12628-4 0  9996,2 52493  53.2160 198.4474 0001027  93.1978 266.9132 15.08834792 62099,6917.896,95.438,540.472,539.051,0.0
52493.0,STARLINK-3883,PAYLOAD,2023-06-18 18:33:22,15.0883963,9.95e-05,53.2161,195.4741,88.4234,271.6872,-4.6224e-05,-1.023e-05,0.0,0 STARLINK-3883,1 52493U 22049AU  23169.77317258 -.00001023  00000-0 -46224-4 0  9991,2 52493  53.2161 195.4741 0000995  88.4234 271.6872 15.08839630 62358,6917.882,95.438,540.435,539.058,0.0
52493.0,STARLINK-3883,PAYLOAD,2023-06-19 12:02:36,15.08837175,9.72e-05,53.2156,192.2018,88.3514,271.759,0.00010397,1.367e-05,0.0,0 STARLINK-3883,1 52493U 22049AU  23170.50181269  .00001367  00000-0  10397-3 0  9995,2 52493  53.2156 192.2018 0000972  88.3514 271.7590 15.08837175 62304,6917.889,95.438,540.426,539.082,0.0
